start=new Date('2021-09-26T00:00:00.000Z').valueOf();
sats=[{"REV_AT_EPOCH":"6227","APOAPSIS":"548.575","EPOCH":"2021-09-25T16:53:04.012224","FILE":"3128274","CLASSIFICATION_TYPE":"U","LAUNCH_DATE":"2020-08-18","TIME_SYSTEM":"UTC","INCLINATION":"53.0555","SITE":"AFETR","CENTER_NAME":"EARTH","ELEMENT_SET_NO":"999","MEAN_MOTION_DOT":"-0.00000638","GP_ID":"185507288","MEAN_MOTION_DDOT":"0.0000000000000","NORAD_CAT_ID":"46120","SEMIMAJOR_AXIS":"6925.360","BSTAR":"-0.00002393400000","MEAN_ELEMENT_THEORY":"SGP4","REF_FRAME":"TEME","ARG_OF_PERICENTER":"90.0319","MEAN_MOTION":"15.06396304","RCS_SIZE":"LARGE","DECAY_DATE":null,"TLE_LINE2":"2 46120  53.0555  55.9583 0001949  90.0319 270.0893 15.06396304 62271","TLE_LINE1":"1 46120U 20057D   21268.70351866 -.00000638  00000-0 -23934-4 0  9996","OBJECT_NAME":"STARLINK-1601","PERIAPSIS":"545.875","ECCENTRICITY":"0.00019490","EPHEMERIS_TYPE":"0","COUNTRY_CODE":"US","OBJECT_TYPE":"PAYLOAD","OBJECT_ID":"2020-057D","MEAN_ANOMALY":"270.0893","RA_OF_ASC_NODE":"55.9583","PERIOD":"95.592"},{"INCLINATION":"53.0559","SITE":"AFETR","LAUNCH_DATE":"2020-08-18","TIME_SYSTEM":"UTC","APOAPSIS":"548.101","FILE":"3128274","EPOCH":"2021-09-25T12:56:51.205920","CLASSIFICATION_TYPE":"U","REV_AT_EPOCH":"6124","GP_ID":"185507538","MEAN_MOTION_DDOT":"0.0000000000000","MEAN_MOTION_DOT":"-0.00001415","CENTER_NAME":"EARTH","ELEMENT_SET_NO":"999","TLE_LINE2":"2 46121  53.0559  36.6951 0001280  96.5200 263.5935 15.06399826 61241","DECAY_DATE":null,"RCS_SIZE":"LARGE","ARG_OF_PERICENTER":"96.5200","MEAN_MOTION":"15.06399826","NORAD_CAT_ID":"46121","SEMIMAJOR_AXIS":"6925.349","BSTAR":"-0.00007610300000","MEAN_ELEMENT_THEORY":"SGP4","REF_FRAME":"TEME","PERIOD":"95.592","MEAN_ANOMALY":"263.5935","RA_OF_ASC_NODE":"36.6951","OBJECT_ID":"2020-057E","OBJECT_TYPE":"PAYLOAD","TLE_LINE1":"1 46121U 20057E   21268.53948155 -.00001415  00000-0 -76103-4 0  9991","ECCENTRICITY":"0.00012800","PERIAPSIS":"546.328","OBJECT_NAME":"STARLINK-1602","EPHEMERIS_TYPE":"0","COUNTRY_CODE":"US"},{"RA_OF_ASC_NODE":"16.6509","MEAN_ANOMALY":"264.0472","PERIOD":"95.592","COUNTRY_CODE":"US","EPHEMERIS_TYPE":"0","TLE_LINE1":"1 46122U 20057F   21268.54870444 -.00001345  00000-0 -71432-4 0  9990","PERIAPSIS":"546.195","OBJECT_NAME":"STARLINK-1604","ECCENTRICITY":"0.00014860","OBJECT_TYPE":"PAYLOAD","OBJECT_ID":"2020-057F","RCS_SIZE":"LARGE","DECAY_DATE":null,"TLE_LINE2":"2 46122  53.0556  16.6509 0001486  96.0687 264.0472 15.06396503 62789","MEAN_ELEMENT_THEORY":"SGP4","REF_FRAME":"TEME","SEMIMAJOR_AXIS":"6925.359","NORAD_CAT_ID":"46122","BSTAR":"-0.00007143200000","MEAN_MOTION":"15.06396503","ARG_OF_PERICENTER":"96.0687","MEAN_MOTION_DDOT":"0.0000000000000","GP_ID":"185505786","ELEMENT_SET_NO":"999","CENTER_NAME":"EARTH","MEAN_MOTION_DOT":"-0.00001345","TIME_SYSTEM":"UTC","LAUNCH_DATE":"2020-08-18","SITE":"AFETR","INCLINATION":"53.0556","REV_AT_EPOCH":"6278","CLASSIFICATION_TYPE":"U","EPOCH":"2021-09-25T13:10:08.063616","FILE":"3128274","APOAPSIS":"548.253"},{"MEAN_ELEMENT_THEORY":"SGP4","REF_FRAME":"TEME","SEMIMAJOR_AXIS":"6925.357","NORAD_CAT_ID":"46123","BSTAR":"-0.00003567500000","ARG_OF_PERICENTER":"106.7604","MEAN_MOTION":"15.06397364","RCS_SIZE":"LARGE","DECAY_DATE":null,"TLE_LINE2":"2 46123  53.0562  16.4204 0001129 106.7604 253.3509 15.06397364 62811","PERIAPSIS":"546.440","TLE_LINE1":"1 46123U 20057G   21268.60030788 -.00000813  00000-0 -35675-4 0  9995","OBJECT_NAME":"STARLINK-1605","ECCENTRICITY":"0.00011290","COUNTRY_CODE":"US","EPHEMERIS_TYPE":"0","OBJECT_TYPE":"PAYLOAD","OBJECT_ID":"2020-057G","MEAN_ANOMALY":"253.3509","RA_OF_ASC_NODE":"16.4204","PERIOD":"95.592","REV_AT_EPOCH":"6281","EPOCH":"2021-09-25T14:24:26.600832","FILE":"3128274","APOAPSIS":"548.004","CLASSIFICATION_TYPE":"U","TIME_SYSTEM":"UTC","LAUNCH_DATE":"2020-08-18","SITE":"AFETR","INCLINATION":"53.0562","ELEMENT_SET_NO":"999","CENTER_NAME":"EARTH","MEAN_MOTION_DOT":"-0.00000813","GP_ID":"185506036","MEAN_MOTION_DDOT":"0.0000000000000"},{"PERIOD":"95.592","RA_OF_ASC_NODE":"16.3901","MEAN_ANOMALY":"264.0624","OBJECT_ID":"2020-057H","OBJECT_TYPE":"PAYLOAD","COUNTRY_CODE":"US","EPHEMERIS_TYPE":"0","OBJECT_NAME":"STARLINK-1614","TLE_LINE1":"1 46124U 20057H   21268.60767402  .00000121  00000-0  27035-4 0  9997","PERIAPSIS":"546.252","ECCENTRICITY":"0.00013620","TLE_LINE2":"2 46124  53.0567  16.3901 0001362  96.0520 264.0624 15.06405921 61542","RCS_SIZE":"LARGE","DECAY_DATE":null,"MEAN_MOTION":"15.06405921","ARG_OF_PERICENTER":"96.0520","REF_FRAME":"TEME","MEAN_ELEMENT_THEORY":"SGP4","BSTAR":"0.00002703500000","SEMIMAJOR_AXIS":"6925.330","NORAD_CAT_ID":"46124","MEAN_MOTION_DDOT":"0.0000000000000","GP_ID":"185506788","MEAN_MOTION_DOT":"0.00000121","ELEMENT_SET_NO":"999","CENTER_NAME":"EARTH","INCLINATION":"53.0567","SITE":"AFETR","TIME_SYSTEM":"UTC","LAUNCH_DATE":"2020-08-18","CLASSIFICATION_TYPE":"U","FILE":"3128274","EPOCH":"2021-09-25T14:35:03.035328","APOAPSIS":"548.139","REV_AT_EPOCH":"6154"},{"NORAD_CAT_ID":"46125","SEMIMAJOR_AXIS":"6925.331","BSTAR":"0.00004527600000","MEAN_ELEMENT_THEORY":"SGP4","REF_FRAME":"TEME","ARG_OF_PERICENTER":"94.7252","MEAN_MOTION":"15.06405856","RCS_SIZE":"LARGE","DECAY_DATE":null,"TLE_LINE2":"2 46125  53.0539  56.4692 0001730  94.7252 265.3934 15.06405856 62232","TLE_LINE1":"1 46125U 20057J   21268.58923627  .00000393  00000-0  45276-4 0  9996","ECCENTRICITY":"0.00017300","PERIAPSIS":"545.998","OBJECT_NAME":"STARLINK-1618","EPHEMERIS_TYPE":"0","COUNTRY_CODE":"US","OBJECT_ID":"2020-057J","OBJECT_TYPE":"PAYLOAD","MEAN_ANOMALY":"265.3934","RA_OF_ASC_NODE":"56.4692","PERIOD":"95.592","REV_AT_EPOCH":"6223","APOAPSIS":"548.394","FILE":"3128274","EPOCH":"2021-09-25T14:08:30.013728","CLASSIFICATION_TYPE":"U","LAUNCH_DATE":"2020-08-18","TIME_SYSTEM":"UTC","SITE":"AFETR","INCLINATION":"53.0539","CENTER_NAME":"EARTH","ELEMENT_SET_NO":"999","MEAN_MOTION_DOT":"0.00000393","GP_ID":"185507038","MEAN_MOTION_DDOT":"0.0000000000000"},{"MEAN_MOTION_DDOT":"0.0000000000000","GP_ID":"185506287","CENTER_NAME":"EARTH","ELEMENT_SET_NO":"999","MEAN_MOTION_DOT":"-0.00000227","TIME_SYSTEM":"UTC","LAUNCH_DATE":"2020-08-18","INCLINATION":"53.0573","SITE":"AFETR","REV_AT_EPOCH":"6099","CLASSIFICATION_TYPE":"U","APOAPSIS":"548.390","EPOCH":"2021-09-25T16:42:25.938720","FILE":"3128274","RA_OF_ASC_NODE":"55.8088","MEAN_ANOMALY":"263.9285","PERIOD":"95.593","EPHEMERIS_TYPE":"0","COUNTRY_CODE":"US","OBJECT_NAME":"STARLINK-1619","TLE_LINE1":"1 46126U 20057K   21268.69613355 -.00000227  00000-0  36407-5 0  9997","PERIAPSIS":"546.073","ECCENTRICITY":"0.00016730","OBJECT_TYPE":"PAYLOAD","OBJECT_ID":"2020-057K","RCS_SIZE":"LARGE","DECAY_DATE":null,"TLE_LINE2":"2 46126  53.0573  55.8088 0001673  96.1895 263.9285 15.06394195 60995","SEMIMAJOR_AXIS":"6925.366","BSTAR":"0.00000364070000","NORAD_CAT_ID":"46126","MEAN_ELEMENT_THEORY":"SGP4","REF_FRAME":"TEME","MEAN_MOTION":"15.06394195","ARG_OF_PERICENTER":"96.1895"},{"PERIOD":"95.591","RA_OF_ASC_NODE":"36.3354","MEAN_ANOMALY":"265.4875","OBJECT_TYPE":"PAYLOAD","OBJECT_ID":"2020-057L","EPHEMERIS_TYPE":"0","COUNTRY_CODE":"US","TLE_LINE1":"1 46127U 20057L   21268.62055974 -.00002610  00000-0 -15626-3 0  9995","PERIAPSIS":"546.078","OBJECT_NAME":"STARLINK-1621","ECCENTRICITY":"0.00015530","TLE_LINE2":"2 46127  53.0572  36.3354 0001553  94.6291 265.4875 15.06419644 61254","DECAY_DATE":null,"RCS_SIZE":"LARGE","MEAN_MOTION":"15.06419644","ARG_OF_PERICENTER":"94.6291","BSTAR":"-0.00015626000000","SEMIMAJOR_AXIS":"6925.288","NORAD_CAT_ID":"46127","REF_FRAME":"TEME","MEAN_ELEMENT_THEORY":"SGP4","MEAN_MOTION_DDOT":"0.0000000000000","GP_ID":"185506537","MEAN_MOTION_DOT":"-0.00002610","CENTER_NAME":"EARTH","ELEMENT_SET_NO":"999","SITE":"AFETR","INCLINATION":"53.0572","LAUNCH_DATE":"2020-08-18","TIME_SYSTEM":"UTC","CLASSIFICATION_TYPE":"U","APOAPSIS":"548.229","FILE":"3128274","EPOCH":"2021-09-25T14:53:36.361536","REV_AT_EPOCH":"6125"},{"RCS_SIZE":"LARGE","DECAY_DATE":null,"TLE_LINE2":"2 46128  53.0566  16.5066 0001304 107.7515 252.3616 15.06415717 61533","SEMIMAJOR_AXIS":"6925.300","BSTAR":"0.00004883100000","NORAD_CAT_ID":"46128","REF_FRAME":"TEME","MEAN_ELEMENT_THEORY":"SGP4","MEAN_MOTION":"15.06415717","ARG_OF_PERICENTER":"107.7515","RA_OF_ASC_NODE":"16.5066","MEAN_ANOMALY":"252.3616","PERIOD":"95.591","EPHEMERIS_TYPE":"0","COUNTRY_CODE":"US","PERIAPSIS":"546.262","TLE_LINE1":"1 46128U 20057M   21268.58184938  .00000446  00000-0  48831-4 0  9992","ECCENTRICITY":"0.00013040","OBJECT_NAME":"STARLINK-1622","OBJECT_TYPE":"PAYLOAD","OBJECT_ID":"2020-057M","TIME_SYSTEM":"UTC","LAUNCH_DATE":"2020-08-18","SITE":"AFETR","INCLINATION":"53.0566","REV_AT_EPOCH":"6153","CLASSIFICATION_TYPE":"U","APOAPSIS":"548.068","EPOCH":"2021-09-25T13:57:51.786432","FILE":"3128274","MEAN_MOTION_DDOT":"0.0000000000000","GP_ID":"185507289","CENTER_NAME":"EARTH","ELEMENT_SET_NO":"999","MEAN_MOTION_DOT":"0.00000446"},{"ELEMENT_SET_NO":"999","CENTER_NAME":"EARTH","MEAN_MOTION_DOT":"0.00000107","GP_ID":"185507539","MEAN_MOTION_DDOT":"0.0000000000000","REV_AT_EPOCH":"6153","FILE":"3128274","EPOCH":"2021-09-25T13:20:44.667456","APOAPSIS":"548.150","CLASSIFICATION_TYPE":"U","LAUNCH_DATE":"2020-08-18","TIME_SYSTEM":"UTC","SITE":"AFETR","INCLINATION":"53.0564","TLE_LINE1":"1 46129U 20057N   21268.55607254  .00000107  00000-0  26089-4 0  9996","ECCENTRICITY":"0.00013100","PERIAPSIS":"546.335","OBJECT_NAME":"STARLINK-1623","COUNTRY_CODE":"US","EPHEMERIS_TYPE":"0","OBJECT_ID":"2020-057N","OBJECT_TYPE":"PAYLOAD","MEAN_ANOMALY":"260.4959","RA_OF_ASC_NODE":"16.6215","PERIOD":"95.593","REF_FRAME":"TEME","MEAN_ELEMENT_THEORY":"SGP4","NORAD_CAT_ID":"46129","SEMIMAJOR_AXIS":"6925.378","BSTAR":"0.00002608900000","ARG_OF_PERICENTER":"99.6178","MEAN_MOTION":"15.06390516","RCS_SIZE":"LARGE","DECAY_DATE":null,"TLE_LINE2":"2 46129  53.0564  16.6215 0001310  99.6178 260.4959 15.06390516 61539"}];
